OSCAR 7 (AO-7)          
1 07530U 74089B   26173.50999495 -.00000042  00000+0  26889-4 0  9995
2 07530 101.9899 186.8122 0012626 120.2640  33.9567 12.53698175361183
ISS (ZARYA)             
1 25544U 98067A   26173.73662978  .00008151  00000+0  15395-3 0  9997
2 25544  51.6325 272.6245 0004455 218.9710 141.0958 15.49373286572615
SAUDISAT 1C (SO-50)     
1 27607U 02058C   26173.21270606  .00000697  00000+0  99777-4 0  9994
2 27607  64.5516 113.4366 0075144 261.5322  97.7262 14.83055677265201
